{"type": "FeatureCollection", "features": [ {"type": "Feature", "properties": {"norad_id": 40802, "name": "COSMOS 2251 DEB", "group": "cosmos-2251-debris", "lat": 31.58859068116202, "lon": -65.48188335752415, "alt_km": 621.4964130792114, "timestamp": "2025-12-27T04:40:45.903353+00:00", "meta": {"OBJECT_NAME": "COSMOS 2251 DEB", "OBJECT_ID": "1993-036BWF", "EPOCH": "2025-12-23T15:31:23.351520", "MEAN_MOTION": 14.77722867, "ECCENTRICITY": 0.00628376, "INCLINATION": 74.0411, "RA_OF_ASC_NODE": 131.6125, "ARG_OF_PERICENTER": 228.2814, "MEAN_ANOMALY": 131.2977, "EPHEMERIS_TYPE": 0, "CLASSIFICATION_TYPE": "U", "NORAD_CAT_ID": 40802, "ELEMENT_SET_NO": 999, "REV_AT_EPOCH": 64570, "BSTAR": 0.00086100359, "MEAN_MOTION_DOT": 6.349e-05, "MEAN_MOTION_DDOT": 0}, "tle": {"line1": "1 40802U 93036BWF 25357.64679805  .00006349  00000+0  86100-3 0  9991", "line2": "2 40802  74.0411 131.6125 0062837 228.2814 131.2977 14.77722867645708"}}, "geometry": {"type": "Point", "coordinates": [-65.48188335752415, 31.58859068116202]}}, {"type": "Feature", "properties": {"norad_id": 40803, "name": "COSMOS 2251 DEB", "group": "cosmos-2251-debris", "lat": 73.39423727821963, "lon": 98.64692350429954, "alt_km": 733.938992078819, "timestamp": "2025-12-27T04:40:45.903363+00:00", "meta": {"OBJECT_NAME": "COSMOS 2251 DEB", "OBJECT_ID": "1993-036BWG", "EPOCH": "2025-12-24T20:03:27.634464", "MEAN_MOTION": 14.51846049, "ECCENTRICITY": 0.00342953, "INCLINATION": 74.0134, "RA_OF_ASC_NODE": 29.0874, "ARG_OF_PERICENTER": 243.7253, "MEAN_ANOMALY": 116.0383, "EPHEMERIS_TYPE": 0, "CLASSIFICATION_TYPE": "U", "NORAD_CAT_ID": 40803, "ELEMENT_SET_NO": 999, "REV_AT_EPOCH": 58928, "BSTAR": 0.00027268389, "MEAN_MOTION_DOT": 1.077e-05, "MEAN_MOTION_DDOT": 0}, "tle": {"line1": "1 40803U 93036BWG 25358.83573651  .00001077  00000+0  27268-3 0  9999", "line2": "2 40803  74.0134  29.0874 0034295 243.7253 116.0383 14.51846049589281"}}, "geometry": {"type": "Point", "coordinates": [98.64692350429954, 73.39423727821963]}}, {"type": "Feature", "properties": {"norad_id": 40808, "name": "COSMOS 2251 DEB", "group": "cosmos-2251-debris", "lat": 71.06203970970375, "lon": -118.94263310124605, "alt_km": 657.5712070343861, "timestamp": "2025-12-27T04:40:45.903372+00:00", "meta": {"OBJECT_NAME": "COSMOS 2251 DEB", "OBJECT_ID": "1993-036BWM", "EPOCH": "2025-12-26T00:57:19.369728", "MEAN_MOTION": 14.67714276, "ECCENTRICITY": 0.00079356, "INCLINATION": 74.0421, "RA_OF_ASC_NODE": 119.7933, "ARG_OF_PERICENTER": 153.9486, "MEAN_ANOMALY": 325.2565, "EPHEMERIS_TYPE": 0, "CLASSIFICATION_TYPE": "U", "NORAD_CAT_ID": 40808, "ELEMENT_SET_NO": 999, "REV_AT_EPOCH": 63814, "BSTAR": 0.0017405613, "MEAN_MOTION_DOT": 9.901e-05, "MEAN_MOTION_DDOT": 0}, "tle": {"line1": "1 40808U 93036BWM 25360.03980752  .00009901  00000+0  17406-2 0  9999", "line2": "2 40808  74.0421 119.7933 0007935 153.9486 325.2565 14.67714276638148"}}, "geometry": {"type": "Point", "coordinates": [-118.94263310124605, 71.06203970970375]}}, {"type": "Feature", "properties": {"norad_id": 40810, "name": "COSMOS 2251 DEB", "group": "cosmos-2251-debris", "lat": -72.00073177914847, "lon": -14.556833724086001, "alt_km": 701.9987291421603, "timestamp": "2025-12-27T04:40:45.903382+00:00", "meta": {"OBJECT_NAME": "COSMOS 2251 DEB", "OBJECT_ID": "1993-036BWP", "EPOCH": "2025-12-23T03:56:49.945344", "MEAN_MOTION": 14.58782513, "ECCENTRICITY": 0.00180471, "INCLINATION": 74.0361, "RA_OF_ASC_NODE": 54.8832, "ARG_OF_PERICENTER": 205.863, "MEAN_ANOMALY": 154.1635, "EPHEMERIS_TYPE": 0, "CLASSIFICATION_TYPE": "U", "NORAD_CAT_ID": 40810, "ELEMENT_SET_NO": 999, "REV_AT_EPOCH": 61835, "BSTAR": 0.0007215593, "MEAN_MOTION_DOT": 3.351e-05, "MEAN_MOTION_DDOT": 0}, "tle": {"line1": "1 40810U 93036BWP 25357.16446696  .00003351  00000+0  72156-3 0  9993", "line2": "2 40810  74.0361  54.8832 0018047 205.8630 154.1635 14.58782513618352"}}, "geometry": {"type": "Point", "coordinates": [-14.556833724086001, -72.00073177914847]}}, {"type": "Feature", "properties": {"norad_id": 46271, "name": "COSMOS 2251 DEB", "group": "cosmos-2251-debris", "lat": 41.03832212548049, "lon": -143.39359143001013, "alt_km": 693.5889992692237, "timestamp": "2025-12-27T04:40:45.903392+00:00", "meta": {"OBJECT_NAME": "COSMOS 2251 DEB", "OBJECT_ID": "1993-036BWT", "EPOCH": "2025-12-26T09:51:15.606720", "MEAN_MOTION": 14.51459562, "ECCENTRICITY": 0.0039505, "INCLINATION": 74.0464, "RA_OF_ASC_NODE": 52.4997, "ARG_OF_PERICENTER": 171.0739, "MEAN_ANOMALY": 189.1134, "EPHEMERIS_TYPE": 0, "CLASSIFICATION_TYPE": "U", "NORAD_CAT_ID": 46271, "ELEMENT_SET_NO": 999, "REV_AT_EPOCH": 84840, "BSTAR": 0.00027567, "MEAN_MOTION_DOT": 1.084e-05, "MEAN_MOTION_DDOT": 0}, "tle": {"line1": "1 46271U 93036BWT 25360.41059730  .00001084  00000+0  27567-3 0  9998", "line2": "2 46271  74.0464  52.4997 0039505 171.0739 189.1134 14.51459562848406"}}, "geometry": {"type": "Point", "coordinates": [-143.39359143001013, 41.03832212548049]}}, {"type": "Feature", "properties": {"norad_id": 46430, "name": "COSMOS 2251 DEB", "group": "cosmos-2251-debris", "lat": -18.585763181066454, "lon": 154.50213280680327, "alt_km": 675.4391602151463, "timestamp": "2025-12-27T04:40:45.903402+00:00", "meta": {"OBJECT_NAME": "COSMOS 2251 DEB", "OBJECT_ID": "1993-036BWU", "EPOCH": "2025-12-22T16:14:06.887040", "MEAN_MOTION": 14.51442901, "ECCENTRICITY": 0.01029275, "INCLINATION": 73.9145, "RA_OF_ASC_NODE": 337.5005, "ARG_OF_PERICENTER": 256.0795, "MEAN_ANOMALY": 102.8901, "EPHEMERIS_TYPE": 0, "CLASSIFICATION_TYPE": "U", "NORAD_CAT_ID": 46430, "ELEMENT_SET_NO": 999, "REV_AT_EPOCH": 79827, "BSTAR": 0.0019695835, "MEAN_MOTION_DOT": 8.403e-05, "MEAN_MOTION_DDOT": 0}, "tle": {"line1": "1 46430U 93036BWU 25356.67646860  .00008403  00000+0  19696-2 0  9999", "line2": "2 46430  73.9145 337.5005 0102927 256.0795 102.8901 14.51442901798271"}}, "geometry": {"type": "Point", "coordinates": [154.50213280680327, -18.585763181066454]}}, {"type": "Feature", "properties": {"norad_id": 46432, "name": "COSMOS 2251 DEB", "group": "cosmos-2251-debris", "lat": 60.09672395091888, "lon": -121.68029588673313, "alt_km": 1087.8567104991644, "timestamp": "2025-12-27T04:40:45.903412+00:00", "meta": {"OBJECT_NAME": "COSMOS 2251 DEB", "OBJECT_ID": "1993-036BWW", "EPOCH": "2025-12-25T00:54:04.722624", "MEAN_MOTION": 13.36660179, "ECCENTRICITY": 0.04737205, "INCLINATION": 73.8746, "RA_OF_ASC_NODE": 91.9173, "ARG_OF_PERICENTER": 207.4888, "MEAN_ANOMALY": 335.6994, "EPHEMERIS_TYPE": 0, "CLASSIFICATION_TYPE": "U", "NORAD_CAT_ID": 46432, "ELEMENT_SET_NO": 999, "REV_AT_EPOCH": 67130, "BSTAR": 0.00092584102, "MEAN_MOTION_DOT": 8.9e-06, "MEAN_MOTION_DDOT": 0}, "tle": {"line1": "1 46432U 93036BWW 25359.03755466  .00000890  00000+0  92584-3 0  9997", "line2": "2 46432  73.8746  91.9173 0473720 207.4888 335.6994 13.36660179671304"}}, "geometry": {"type": "Point", "coordinates": [-121.68029588673313, 60.09672395091888]}}, {"type": "Feature", "properties": {"norad_id": 47045, "name": "COSMOS 2251 DEB", "group": "cosmos-2251-debris", "lat": 71.63476810210324, "lon": -178.02864798047358, "alt_km": 776.5429607700999, "timestamp": "2025-12-27T04:40:45.903423+00:00", "meta": {"OBJECT_NAME": "COSMOS 2251 DEB", "OBJECT_ID": "1993-036BWZ", "EPOCH": "2025-12-22T15:55:55.342272", "MEAN_MOTION": 14.38905258, "ECCENTRICITY": 0.00303733, "INCLINATION": 74.058, "RA_OF_ASC_NODE": 130.8857, "ARG_OF_PERICENTER": 270.255, "MEAN_ANOMALY": 108.4261, "EPHEMERIS_TYPE": 0, "CLASSIFICATION_TYPE": "U", "NORAD_CAT_ID": 47045, "ELEMENT_SET_NO": 999, "REV_AT_EPOCH": 7948, "BSTAR": 8.0309913e-05, "MEAN_MOTION_DOT": 2.22e-06, "MEAN_MOTION_DDOT": 0}, "tle": {"line1": "1 47045U 93036BWZ 25356.66383498  .00000222  00000+0  80310-4 0  9990", "line2": "2 47045  74.0580 130.8857 0030373 270.2550 108.4261 14.38905258 79480"}}, "geometry": {"type": "Point", "coordinates": [-178.02864798047358, 71.63476810210324]}}, {"type": "Feature", "properties": {"norad_id": 47048, "name": "COSMOS 2251 DEB", "group": "cosmos-2251-debris", "lat": -13.871296596695315, "lon": -72.23649020513444, "alt_km": 782.0143072799401, "timestamp": "2025-12-27T04:40:45.903433+00:00", "meta": {"OBJECT_NAME": "COSMOS 2251 DEB", "OBJECT_ID": "1993-036BXC", "EPOCH": "2025-12-25T13:52:22.612800", "MEAN_MOTION": 14.52412051, "ECCENTRICITY": 0.0132398, "INCLINATION": 73.978, "RA_OF_ASC_NODE": 294.8913, "ARG_OF_PERICENTER": 119.414, "MEAN_ANOMALY": 56.3605, "EPHEMERIS_TYPE": 0, "CLASSIFICATION_TYPE": "U", "NORAD_CAT_ID": 47048, "ELEMENT_SET_NO": 999, "REV_AT_EPOCH": 59876, "BSTAR": 0.0011784, "MEAN_MOTION_DOT": 5.362e-05, "MEAN_MOTION_DDOT": 0}, "tle": {"line1": "1 47048U 93036BXC 25359.57803950  .00005362  00000+0  11784-2 0  9993", "line2": "2 47048  73.9780 294.8913 0132398 119.4140  56.3605 14.52412051598766"}}, "geometry": {"type": "Point", "coordinates": [-72.23649020513444, -13.871296596695315]}}, {"type": "Feature", "properties": {"norad_id": 47051, "name": "COSMOS 2251 DEB", "group": "cosmos-2251-debris", "lat": -15.494882891682803, "lon": -15.49662496932676, "alt_km": 937.8561416992679, "timestamp": "2025-12-27T04:40:45.903443+00:00", "meta": {"OBJECT_NAME": "COSMOS 2251 DEB", "OBJECT_ID": "1993-036BXF", "EPOCH": "2025-12-13T06:55:53.868288", "MEAN_MOTION": 13.67117141, "ECCENTRICITY": 0.03401033, "INCLINATION": 74.1001, "RA_OF_ASC_NODE": 182.6908, "ARG_OF_PERICENTER": 296.1774, "MEAN_ANOMALY": 246.9893, "EPHEMERIS_TYPE": 0, "CLASSIFICATION_TYPE": "U", "NORAD_CAT_ID": 47051, "ELEMENT_SET_NO": 999, "REV_AT_EPOCH": 59945, "BSTAR": 0.0019326179, "MEAN_MOTION_DOT": 2.391e-05, "MEAN_MOTION_DDOT": 0}, "tle": {"line1": "1 47051U 93036BXF 25347.28881792  .00002391  00000+0  19326-2 0  9991", "line2": "2 47051  74.1001 182.6908 0340103 296.1774 246.9893 13.67117141599458"}}, "geometry": {"type": "Point", "coordinates": [-15.49662496932676, -15.494882891682803]}}]}